[{"OBJECT_NAME":"IRIDIUM 135","OBJECT_ID":"2017-083A","EPOCH":"2026-03-09T20:54:11.059776","MEAN_MOTION":14.34219982,"ECCENTRICITY":0.00022174,"INCLINATION":86.4022,"RA_OF_ASC_NODE":3.5181,"ARG_OF_PERICENTER":86.9121,"MEAN_ANOMALY":273.2329,"EPHEMERIS_TYPE":0,"CLASSIFICATION_TYPE":"U","NORAD_CAT_ID":43070,"ELEMENT_SET_NO":999,"REV_AT_EPOCH":42991,"BSTAR":4.5894748e-5,"MEAN_MOTION_DOT":1.48e-6,"MEAN_MOTION_DDOT":0},{"OBJECT_NAME":"FENGYUN 1C DEB","OBJECT_ID":"1999-025EYM","EPOCH":"2026-03-08T15:01:10.530912","MEAN_MOTION":14.244873,"ECCENTRICITY":0.00515107,"INCLINATION":98.724,"RA_OF_ASC_NODE":136.4617,"ARG_OF_PERICENTER":339.7121,"MEAN_ANOMALY":20.2011,"EPHEMERIS_TYPE":0,"CLASSIFICATION_TYPE":"U","NORAD_CAT_ID":43213,"ELEMENT_SET_NO":999,"REV_AT_EPOCH":41595,"BSTAR":0.0015742062,"MEAN_MOTION_DOT":3.656e-5,"MEAN_MOTION_DDOT":0}]
